C/2024 J2 (Wierzchos),e,79.3021,189.0689,143.1384,145.7458,0.0005602,0.98757445,0.0000,03/19.7259/2025,2000,g 11.5,4.0
# From MPC xxxxx
C/2024 J3 (ATLAS),h,11/25.4224/2026,75.6395,285.9600,74.0901,1.000041,3.865499,2000,5.0,4.0
# From MPEC 2026-O09
C/2024 J4 (Lemmon),e,117.5157,19.3144,127.8562,4307,0.0000035,0.99867755,0.0000,04/25.9074/2025,2000,g  8.0,4.0
# From MPC194190
P/2024 K1 (PANSTARRS),e,1.8204,251.5833,349.3792,6.834480,0.0551627,0.49078417,45.0955,07/21.0/2026,2000,g 13.5,4.0
# From MPC194190
C/2024 L1 (PANSTARRS),e,99.1492,45.1343,171.7773,11.46010,0.0254051,0.53333707,11.5351,07/21.0/2026,2000,g 10.0,4.0
# From MPEC 2026-L50
C/2024 L2 (PANSTARRS),h,06/16.7493/2025,139.5806,266.1800,345.8494,1.004813,8.325813,2000,7.5,3.2
# From MPC194190
C/2024 L3 (PANSTARRS),h,11/23.3634/2023,111.5923,295.0038,59.0408,1.003123,6.857756,2000,9.5,4.0
# From MPEC 2026-GD5
C/2024 L5 (ATLAS),h,03/11.6035/2025,166.6098,139.1876,290.8343,1.039953,3.443522,2000,9.0,4.0
# From MPC194190
C/2024 M1 (ATLAS),e,73.7076,76.2244,345.6020,29.75609,0.0060721,0.94272726,3.6923,07/21.0/2026,2000,g 12.0,4.0
# From MPC194190
C/2024 N1 (PANSTARRS),h,10/18.9863/2025,88.7815,323.0256,91.2732,1.000911,4.398799,2000,10.5,4.0
# From MPC xxxxx
C/2024 N3 (Sarneczky),h,04/11.6420/2025,88.7245,82.6150,86.9035,1.002298,5.014846,2000,8.0,4.0
# From MPC194190
C/2024 N4 (Sarneczky),h,01/10.4142/2025,49.7976,339.6440,116.7632,1.003103,5.399790,2000,7.5,4.0
# From MPC194190
C/2024 O1 (PANSTARRS),e,59.0822,303.3463,349.8182,28010,0.0000002,0.99976427,0.0000,01/27.6895/2023,2000,g  8.5,4.0
# From MPC194190
P/2024 O2 (PANSTARRS),e,28.9816,6.8123,310.7261,7.372597,0.0492349,0.49852715,40.4869,07/21.0/2026,2000,g 12.0,4.0
# From MPC194191
C/2024 Q3 (PANSTARRS),h,03/05.1404/2025,121.3883,337.2865,70.1422,1.001180,2.092543,2000,15.0,4.0
# From MPC194191
C/2024 Q4 (PANSTARRS),e,3.3177,324.2644,133.0389,469.0193,0.0000970,0.98844299,0.0000,11/11.5344/2024,2000,g 10.0,4.0
# From MPC194191
P/2024 R2 (PANSTARRS),e,15.1249,192.9647,203.7510,3.145927,0.1766367,0.26883096,116.2050,07/21.0/2026,2000,g 15.5,4.0
# From MPC194191
P/2024 R3 (PANSTARRS),e,14.7030,32.8118,309.8023,3.200979,0.1720996,0.26923037,137.9621,07/21.0/2026,2000,g 15.0,4.0
# From MPC xxxxx
C/2024 R4 (PANSTARRS),h,10/26.8219/2027,95.3795,345.9471,109.0159,1.002196,4.408340,2000,6.5,4.0
# From MPEC 2026-O09
C/2024 S1 (ATLAS),e,142.3154,348.6333,70.3302,83.74714,0.0012860,0.99990526,0.0000,10/28.2808/2024,2000,g 15.5,4.0
# From MPC194192
P/2024 S2 (Rankin),e,7.5252,8.3173,49.1845,5.010296,0.0878838,0.59141229,59.1315,07/21.0/2026,2000,g 15.0,4.0
# From MPC194192
P/2024 T1 (Rankin),e,17.6200,279.7121,164.8852,6.598043,0.0581542,0.65320802,38.3057,07/21.0/2026,2000,g 14.5,4.0
# From MPC194192
P/2024 T2 (Rankin),e,12.9288,113.0603,343.8615,6.173040,0.0642622,0.68031495,37.8948,07/21.0/2026,2000,g 16.0,4.0
# From MPC194192
C/2024 T3 (PANSTARRS),e,53.3992,74.7954,336.9051,87.40795,0.0012061,0.95748312,0.5944,07/21.0/2026,2000,g 11.5,4.0
# From MPC xxxxx
C/2024 T5 (ATLAS),h,05/06.3085/2027,52.3879,100.6766,352.4816,1.002190,3.839583,2000,5.5,4.0
# From MPC194192
C/2024 U1 (PANSTARRS),e,128.7572,270.2727,188.1359,496.5482,0.0000891,0.99025611,0.0000,06/30.7560/2024,2000,g 10.0,4.0
# From MPC194192
A/2024 U2,h,01/15.7019/2026,120.6756,56.0787,29.8528,1.003489,8.179037,2000,12.1,2.0
# From MPC194192
C/2024 V1 (Borisov),e,54.6241,328.1890,168.6949,233.4199,0.0002764,0.99006419,0.0000,04/04.1392/2025,2000,g 14.8,4.0
# From MPC194192
C/2024 W1 (PANSTARRS),e,83.2039,310.7244,256.7518,45.28681,0.0032340,0.94345238,1.5808,07/21.0/2026,2000,g 15.0,4.0
# From MPC194192
A/2024 W2,h,02/27.4823/2025,116.6159,241.9434,168.0277,1.002190,3.721441,2000,15.6,2.0
# From MPEC 2026-L50
C/2024 X1 (Fazekas),e,6.4739,351.9203,124.3427,9.387720,0.0342660,0.59347508,12.0683,07/21.0/2026,2000,g 11.3,4.0
# From MPEC 2026-N12
C/2024 X2 (ATLAS),e,109.2968,122.5195,315.4836,51.28930,0.0026833,0.92850135,1.0178,07/21.0/2026,2000,g  9.6,4.0
# From MPEC 2026-K60
P/2024 X3 (PANSTARRS),e,2.9724,113.3633,352.9990,6.997164,0.0532502,0.62615551,36.3781,07/21.0/2026,2000,g 14.6,4.0
# From MPC194193
C/2024 X4 (PANSTARRS),e,34.6382,258.9346,153.3838,10.11890,0.0306199,0.64371199,9.8468,07/21.0/2026,2000,g 12.6,4.0
# From MPC194193
C/2024 XK14 (Bok),e,109.2053,239.0951,243.4950,17.02363,0.0140322,0.87901635,5.9786,07/21.0/2026,2000,g 15.5,4.0
# From MPEC 2026-M30
C/2025 A1 (Lemmon),e,33.4018,101.3051,68.3556,13091,0.0000007,0.99959241,0.0000,03/15.1259/2027,2000,g  7.2,4.0
# From MPC194193
P/2025 A2 (PANSTARRS),e,20.7333,189.3185,278.0838,5.083284,0.0859978,0.32179141,56.1806,07/21.0/2026,2000,g 13.2,4.0
# From MPEC 2026-N12
C/2025 A3 (Tsuchinshan),e,9.9759,322.4294,222.3691,10.20383,0.0302384,0.43234679,3.8489,07/21.0/2026,2000,g  9.0,4.0
# From MPC194193
C/2025 A4 (PANSTARRS),e,32.0200,69.9170,102.8317,11.07320,0.0267482,0.65458822,14.8069,07/21.0/2026,2000,g 12.4,4.0
# From MPEC 2026-O09
C/2025 A6 (Lemmon),e,143.6635,108.0973,132.9570,121.4053,0.0007368,0.99563587,0.0000,11/08.5322/2025,2000,g 13.2,4.0
# From MPC194194
A/2025 A7,e,133.6558,348.8631,195.5848,2525,0.0000078,0.99885795,0.0000,03/28.0510/2025,2000,g 14.9,2.0
# From MPC194194
C/2025 B1 (PANSTARRS),e,39.6648,102.8462,23.5580,12324,0.0000007,0.99971357,0.0000,06/26.8153/2025,2000,g 12.0,4.0
# From MPC xxxxx
C/2025 B2 (Borisov),h,09/11.9844/2026,91.7466,84.8721,78.8736,1.002496,8.238769,2000,6.2,4.0
# From MPC194194
P/2025 C1 (ATLAS),e,7.5167,9.0868,186.8393,4.197681,0.1146014,0.34582798,60.6561,07/21.0/2026,2000,g 10.8,4.0
# From MPC194194
C/2025 D1 (Groeller),h,05/22.9452/2028,84.4491,312.9034,185.9714,1.003179,14.115417,2000,1.2,4.0
# From MPEC 2026-H88
P/2025 D2 (PANSTARRS),e,5.3584,257.1830,317.9474,8.710797,0.0383369,0.14871660,322.9916,07/21.0/2026,2000,g  8.2,4.0
# From MPC194194
P/2025 D3 (PANSTARRS),e,9.6417,186.6280,294.5979,3.969116,0.1246417,0.25242424,90.3404,07/21.0/2026,2000,g 14.7,4.0
# From MPC194194
P/2025 D4 (ATLAS),e,15.9370,233.1107,332.9061,8.914782,0.0370287,0.63489782,19.3145,07/21.0/2026,2000,g 13.2,4.0
# From MPC194194
C/2025 D6 (ATLAS),e,145.8875,151.5557,285.5271,992.3333,0.0000315,0.99747288,0.0000,12/11.1781/2024,2000,g 13.2,4.0
# From MPEC 2026-N12
C/2025 E1 (PANSTARRS),e,69.0593,344.5891,274.4244,1814,0.0000128,0.99779597,0.0000,09/23.7087/2026,2000,g  9.7,4.0
# From MPC194195
C/2025 F2 (SWAN),h,05/01.1424/2025,90.3767,329.8192,153.8541,1.000151,0.333891,2000,11.2,4.0
# From MPEC 2026-N12
C/2025 J1 (Borisov),e,95.4292,273.9826,166.6162,1921,0.0000117,0.99813587,0.0000,06/11.7450/2026,2000,g  9.1,4.0
# From MPEC 2026-O09
C/2025 K1 (ATLAS),h,10/08.4284/2025,147.8655,97.5621,271.0237,1.000227,0.334230,2000,12.2,4.0
# From MPC191590
C/2025 K1-B (ATLAS),h,10/08.4403/2025,147.9179,97.6440,271.3242,1.001960,0.335778,2000,14.7,4.0
# From MPC191590
C/2025 K1-C (ATLAS),e,147.8479,97.5339,270.9225,1350,0.0000199,0.99975288,0.0000,10/08.4271/2025,2000,g 14.0,4.0
# From MPC194195
C/2025 K1-D (ATLAS),h,10/08.4471/2025,147.9569,97.7075,271.5473,1.003087,0.336945,2000,14.0,4.0
# From MPC194195
C/2025 K2 (PANSTARRS),e,113.9795,113.8290,232.4654,25.26379,0.0077617,0.88664426,2.0855,07/21.0/2026,2000,g 13.7,4.0
# From MPC xxxxx
C/2025 K3 (PANSTARRS),h,12/14.1281/2028,104.9365,350.6538,188.6250,1.001330,3.468510,2000,6.4,4.0
# From MPC191590
C/2025 K4 (Siverd),e,38.5436,297.0811,326.9167,43.34680,0.0034536,0.94159245,1.2356,07/21.0/2026,2000,g 14.1,4.0
# From MPEC 2026-L50
C/2025 L1 (ATLAS),h,01/12.7357/2026,114.1362,208.1108,341.2545,1.001421,1.679741,2000,11.4,4.0
# From MPEC 2026-L50
C/2025 L2 (MAPS),e,86.5844,134.9867,232.6418,471.0619,0.0000964,0.99398445,0.0000,12/20.6522/2025,2000,g 11.7,4.0
# From MPEC 2026-O09
C/2025 M1 (PANSTARRS),e,64.8824,66.9564,230.3843,5376,0.0000025,0.99798516,0.0000,08/02.4365/2029,2000,g  2.9,4.0
# From MPC xxxxx
C/2025 M2 (PANSTARRS),h,11/23.5482/2027,173.2153,305.5342,96.7566,1.001790,2.721035,2000,13.4,4.0
# From MPEC 2026-M30
C/2025 M3 (PANSTARRS),e,137.2156,65.3540,197.0157,6364,0.0000019,0.99898315,0.0000,07/23.2021/2026,2000,g  9.0,4.0
# From MPEC 2026-N12
C/2025 N2 (ATLAS),h,12/12.0619/2024,81.6629,94.4570,230.0864,1.000778,8.984211,2000,5.1,4.0
# From MPC194196
C/2025 O2 (MAPS),e,134.5471,332.3116,280.2531,3098,0.0000057,0.99926129,0.0000,05/23.7602/2025,2000,g 14.3,4.0
# From MPC194196
A/2025 O4,e,144.2420,68.6442,151.9463,185.3051,0.0003907,0.98283554,0.0000,06/10.0799/2025,2000,g 15.4,2.0
# From MPC194196
A/2025 P1,e,117.7983,342.4267,334.5162,56.71618,0.0023075,0.96164609,1.1018,07/21.0/2026,2000,g 17.1,4.0
# From MPC191591
C/2025 Q1 (ATLAS),e,66.1652,326.9399,280.2330,1385,0.0000191,0.99270816,0.0000,07/11.9624/2024,2000,g  3.8,4.0
# From MPEC 2026-M30
C/2025 Q3 (ATLAS),e,90.1855,233.1445,218.4599,772.4739,0.0000459,0.99726520,0.0000,02/25.6486/2026,2000,g 12.2,4.0
# From MPEC 2026-N12
C/2025 R1 (ATLAS),e,110.0241,60.3998,77.5536,166.8056,0.0004575,0.98815865,0.0000,11/23.3413/2025,2000,g 14.0,4.0
# From MPEC 2026-N12
C/2025 R2 (SWAN),e,4.4729,335.3148,308.3754,86.68935,0.0012211,0.99418331,0.0000,09/12.8240/2025,2000,g 12.4,4.0
# From MPEC 2026-N12
C/2025 R3 (PANSTARRS),h,04/19.8936/2026,124.7312,38.6958,162.2267,1.000355,0.498626,2000,12.2,4.0
# From MPEC 2026-K60
A/2025 S2,e,96.6425,34.4753,31.5898,63.21262,0.0019611,0.97332361,0.0000,01/02.4114/2026,2000,g 16.0,2.0
# From MPC191591
A/2025 S3,e,103.5642,36.7317,71.1301,216.2594,0.0003099,0.98962155,0.0000,06/25.0974/2026,2000,g 15.0,2.0
# From MPEC 2026-K60
C/2025 T1 (ATLAS),e,123.4350,140.4953,114.1400,3847,0.0000041,0.99971181,0.0000,12/02.3822/2025,2000,g 14.7,4.0
# From MPEC 2026-K60
P/2025 U1 (Hogan),e,23.8297,234.9050,264.0675,5.894644,0.0688680,0.29326037,8.0640,07/21.0/2026,2000,g 11.7,4.0
# From MPEC 2026-O09
P/2025 UX109 (Ye),e,3.1815,197.9821,276.1143,3.804138,0.1328372,0.32444548,45.2747,07/21.0/2026,2000,g 13.7,4.0
# From MPC191592
C/2025 V1 (Borisov),h,11/16.5502/2025,112.7032,91.8737,47.5685,1.007762,0.462640,2000,16.3,4.0
# From MPEC 2026-O09
